{
    "links": {
        "self": "http://www.neowsapp.com/rest/v1/neo/3696461?api_key=iIulBulltgU6a56xZRHN4H3l9WmuAYTsLGpBGhQ2"
    },
    "id": "3696461",
    "neo_reference_id": "3696461",
    "name": "(2014 WR69)",
    "designation": "2014 WR69",
    "nasa_jpl_url": "http://ssd.jpl.nasa.gov/sbdb.cgi?sstr=3696461",
    "absolute_magnitude_h": 25.0,
    "estimated_diameter": {
        "kilometers": {
            "estimated_diameter_min": 0.02658,
            "estimated_diameter_max": 0.0594346868
        },
        "meters": {
            "estimated_diameter_min": 26.58,
            "estimated_diameter_max": 59.4346868419
        },
        "miles": {
            "estimated_diameter_min": 0.0165160412,
            "estimated_diameter_max": 0.0369309908
        },
        "feet": {
            "estimated_diameter_min": 87.2047272,
            "estimated_diameter_max": 194.9956979785
        }
    },
    "is_potentially_hazardous_asteroid": false,
    "close_approach_data": [
        {
            "close_approach_date": "1900-05-02",
            "close_approach_date_full": "1900-May-02 16:49",
            "epoch_date_close_approach": -2198473860000,
            "relative_velocity": {
                "kilometers_per_second": "11.0989650835",
                "kilometers_per_hour": "39956.2743005924",
                "miles_per_hour": "24827.2749952765"
            },
            "miss_distance": {
                "astronomical": "0.0933270206",
                "lunar": "36.3042110134",
                "kilometers": "13961523.495206122",
                "miles": "8675288.4214516036"
            },
            "orbiting_body": "Mars"
        },
        {
            "close_approach_date": "2014-11-23",
            "close_approach_date_full": "2014-Nov-23 22:52",
            "epoch_date_close_approach": 1416783120000,
            "relative_velocity": {
                "kilometers_per_second": "8.9225676964",
                "kilometers_per_hour": "32121.243707026",
                "miles_per_hour": "19958.8916800685"
            },
            "miss_distance": {
                "astronomical": "0.0392698092",
                "lunar": "15.2759557788",
                "kilometers": "5874679.811626404",
                "miles": "3650356.7656522152"
            },
            "orbiting_body": "Earth"
        },
        {
            "close_approach_date": "2015-04-21",
            "close_approach_date_full": "2015-Apr-21 15:52",
            "epoch_date_close_approach": 1429631520000,
            "relative_velocity": {
                "kilometers_per_second": "5.1470458612",
                "kilometers_per_hour": "18529.3651004733",
                "miles_per_hour": "11513.4268870135"
            },
            "miss_distance": {
                "astronomical": "0.4026202724",
                "lunar": "156.6192859636",
                "kilometers": "60231135.169859788",
                "miles": "37425891.9328815544"
            },
            "orbiting_body": "Earth"
        },
        {
            "close_approach_date": "2054-01-05",
            "close_approach_date_full": "2054-Jan-05 23:34",
            "epoch_date_close_approach": 2651268840000,
            "relative_velocity": {
                "kilometers_per_second": "9.9440371381",
                "kilometers_per_hour": "35798.5336970497",
                "miles_per_hour": "22243.8166741474"
            },
            "miss_distance": {
                "astronomical": "0.028970177",
                "lunar": "11.269398853",
                "kilometers": "4333876.77272299",
                "miles": "2692946.152997662"
            },
            "orbiting_body": "Mars"
        }
    ],
    "orbital_data": {
        "orbit_id": "4",
        "orbit_determination_date": "2019-07-19 05:25:54",
        "first_observation_date": "2014-11-17",
        "last_observation_date": "2014-11-21",
        "data_arc_in_days": 4,
        "observations_used": 23,
        "orbit_uncertainty": "8",
        "minimum_orbit_intersection": ".00155654",
        "jupiter_tisserand_invariant": "4.749",
        "epoch_osculation": "2456979.5",
        "eccentricity": ".349888938491587",
        "semi_major_axis": "1.374078624835088",
        "inclination": "2.245156384732254",
        "ascending_node_longitude": "244.0831196030715",
        "orbital_period": "588.3229667316377",
        "perihelion_distance": ".8933037133875598",
        "perihelion_argument": "232.9639511761569",
        "aphelion_distance": "1.854853536282617",
        "perihelion_time": "2457028.048135631503",
        "mean_anomaly": "330.2929686317799",
        "mean_motion": ".6119087990053144",
        "equinox": "J2000",
        "orbit_class": {
            "orbit_class_type": "APO",
            "orbit_class_description": "Near-Earth asteroid orbits which cross the Earth’s orbit similar to that of 1862 Apollo",
            "orbit_class_range": "a (semi-major axis) > 1.0 AU; q (perihelion) < 1.017 AU"
        }
    },
    "is_sentry_object": false
}